IRIDIUM 106             
1 41917U 17003A   25357.20905356  .00000059  00000+0  13903-4 0  9998
2 41917  86.3990 162.0829 0002437  95.0854 265.0620 14.34218139467985
IRIDIUM 103             
1 41918U 17003B   25357.19637363  .00000202  00000+0  65189-4 0  9990
2 41918  86.3990 161.9884 0001807 103.6832 256.4565 14.34218236468001
IRIDIUM 109             
1 41919U 17003C   25357.20271153  .00000084  00000+0  23023-4 0  9993
2 41919  86.3991 162.0424 0001958  95.2469 264.8951 14.34218781467976
IRIDIUM 102             
1 41920U 17003D   25357.17099750  .00000058  00000+0  13632-4 0  9998
2 41920  86.3989 161.9830 0001996  90.0379 270.1046 14.34217682468053
IRIDIUM 105             
1 41921U 17003E   25356.30451730  .00000306  00000+0  10230-3 0  9999
2 41921  86.3985 130.8365 0001967  96.7523 263.3897 14.34217637469789
IRIDIUM 104             
1 41922U 17003F   25356.83483935  .00000024  00000+0  16701-5 0  9998
2 41922  86.3993 162.1632 0001553  94.3187 265.8186 14.34217371467999
IRIDIUM 114             
1 41923U 17003G   25357.19002006 -.00000022  00000+0 -15005-4 0  9990
2 41923  86.3994 161.9988 0001736  95.6457 264.4937 14.34216491468025
IRIDIUM 108             
1 41924U 17003H   25357.28808408  .00000035  00000+0  52787-5 0  9992
2 41924  86.3978 130.3150 0002060  89.7101 270.4331 14.34217988469893
